TRANSPORTER-12 OBJECT BT
1 62674U 25009BT  26068.71416991  .00013824  00000+0  51029-3 0  9998
2 62674  97.4094 151.5992 0003682 313.5044  46.5889 15.27872239121360
STARLINK-33758          
1 64004U 25101L   26067.83674913  .00044004  00000+0  15990-2 0  9992
2 64004  43.0012   2.8821 0000507 258.3313 101.7481 15.27581192 46928
